[
    {
        "Altitude(m)": 622200.1225028799,
        "Argument of Periapsis(deg)": 0.0,
        "Eccentricity": 0.0,
        "Inclination(deg)": 60.0,
        "Latitude(deg)": -52.16258046086718,
        "Longitude(deg)": -7.639110121429822,
        "Mean Anomaly(deg)": -65.45449999999998,
        "RAAN(deg)": 140.0,
        "Satellite Name": "Test1 634",
        "Satellite Number": 634,
        "Semi-Major Axis(m)": 6980739.136638005,
        "Time(s)": 0
    },
    {
        "Altitude(m)": 622058.2897769164,
        "Argument of Periapsis(deg)": 0.00010418945913296404,
        "Eccentricity": 0.0,
        "Inclination(deg)": 60.0,
        "Latitude(deg)": -51.799328676717025,
        "Longitude(deg)": -6.87105331674544,
        "Mean Anomaly(deg)": -64.83439385453813,
        "RAAN(deg)": 139.99957995086024,
        "Satellite Name": "Test1 634",
        "Satellite Number": 634,
        "Semi-Major Axis(m)": 6980739.136638005,
        "Time(s)": 10
    },
    {
        "Altitude(m)": 621913.723765124,
        "Argument of Periapsis(deg)": 0.0002083789182659281,
        "Eccentricity": 0.0,
        "Inclination(deg)": 60.0,
        "Latitude(deg)": -51.43056533296423,
        "Longitude(deg)": -6.115975330769914,
        "Mean Anomaly(deg)": -64.2142877090763,
        "RAAN(deg)": 139.99915990172053,
        "Satellite Name": "Test1 634",
        "Satellite Number": 634,
        "Semi-Major Axis(m)": 6980739.136638005,
        "Time(s)": 20
    },
    {
        "Altitude(m)": 621766.4809070561,
        "Argument of Periapsis(deg)": 0.00031256837739889213,
        "Eccentricity": 0.0,
        "Inclination(deg)": 60.0,
        "Latitude(deg)": -51.05644755052764,
        "Longitude(deg)": -5.373686462590652,
        "Mean Anomaly(deg)": -63.59418156361444,
        "RAAN(deg)": 139.99873985258074,
        "Satellite Name": "Test1 634",
        "Satellite Number": 634,
        "Semi-Major Axis(m)": 6980739.136638005,
        "Time(s)": 30
    },
    {
        "Altitude(m)": 621616.618658681,
        "Argument of Periapsis(deg)": 0.0004167578365318562,
        "Eccentricity": 0.0,
        "Inclination(deg)": 60.0,
        "Latitude(deg)": -50.67712875974807,
        "Longitude(deg)": -4.643989245968165,
        "Mean Anomaly(deg)": -62.974075418152665,
        "RAAN(deg)": 139.998319803441,
        "Satellite Name": "Test1 634",
        "Satellite Number": 634,
        "Semi-Major Axis(m)": 6980739.136638005,
        "Time(s)": 40
    },
    {
        "Altitude(m)": 621464.1954677593,
        "Argument of Periapsis(deg)": 0.0005209472956648203,
        "Eccentricity": 0.0,
        "Inclination(deg)": 60.0,
        "Latitude(deg)": -50.29275867338879,
        "Longitude(deg)": -3.9266804991749167,
        "Mean Anomaly(deg)": -62.353969272690826,
        "RAAN(deg)": 139.99789975430127,
        "Satellite Name": "Test1 634",
        "Satellite Number": 634,
        "Semi-Major Axis(m)": 6980739.136638005,
        "Time(s)": 50
    },
    {
        "Altitude(m)": 621309.2707488098,
        "Argument of Periapsis(deg)": 0.0006251367547977843,
        "Eccentricity": 0.0,
        "Inclination(deg)": 60.0,
        "Latitude(deg)": -49.90348327418798,
        "Longitude(deg)": -3.2215517926125337,
        "Mean Anomaly(deg)": -61.733863127229036,
        "RAAN(deg)": 139.99747970516154,
        "Satellite Name": "Test1 634",
        "Satellite Number": 634,
        "Semi-Major Axis(m)": 6980739.136638005,
        "Time(s)": 60
    },
    {
        "Altitude(m)": 621151.9048576216,
        "Argument of Periapsis(deg)": 0.0007293262139307483,
        "Eccentricity": 0.0,
        "Inclination(deg)": 60.0,
        "Latitude(deg)": -49.50944481556197,
        "Longitude(deg)": -2.528389848485766,
        "Mean Anomaly(deg)": -61.113756981767196,
        "RAAN(deg)": 139.99705965602178,
        "Satellite Name": "Test1 634",
        "Satellite Number": 634,
        "Semi-Major Axis(m)": 6980739.136638005,
        "Time(s)": 70
    },
    {
        "Altitude(m)": 620992.1590653528,
        "Argument of Periapsis(deg)": 0.0008335156730637124,
        "Eccentricity": 0.0,
        "Inclination(deg)": 60.0,
        "Latitude(deg)": -49.110781834130634,
        "Longitude(deg)": -1.8469783872309968,
        "Mean Anomaly(deg)": -60.493650836305356,
        "RAAN(deg)": 139.99663960688204,
        "Satellite Name": "Test1 634",
        "Satellite Number": 634,
        "Semi-Major Axis(m)": 6980739.136638005,
        "Time(s)": 80
    },
    {
        "Altitude(m)": 620830.0955322043,
        "Argument of Periapsis(deg)": 0.0009377051321966765,
        "Eccentricity": 0.0,
        "Inclination(deg)": 60.0,
        "Latitude(deg)": -48.70762917279848,
        "Longitude(deg)": -1.1770983971068771,
        "Mean Anomaly(deg)": -59.87354469084352,
        "RAAN(deg)": 139.9962195577423,
        "Satellite Name": "Test1 634",
        "Satellite Number": 634,
        "Semi-Major Axis(m)": 6980739.136638005,
        "Time(s)": 90
    },
    {
        "Altitude(m)": 620665.7772807141,
        "Argument of Periapsis(deg)": 0.0010418945913296407,
        "Eccentricity": 0.0,
        "Inclination(deg)": 60.0,
        "Latitude(deg)": -48.30011801321132,
        "Longitude(deg)": -0.5185283422383038,
        "Mean Anomaly(deg)": -59.25343854538168,
        "RAAN(deg)": 139.99579950860257,
        "Satellite Name": "Test1 634",
        "Satellite Number": 634,
        "Semi-Major Axis(m)": 6980739.136638005,
        "Time(s)": 100
    },
    {
        "Altitude(m)": 620499.2681686236,
        "Argument of Periapsis(deg)": 0.0011460840504626045,
        "Eccentricity": 0.0,
        "Inclination(deg)": 60.0,
        "Latitude(deg)": -47.888375916484186,
        "Longitude(deg)": 0.12895417539485754,
        "Mean Anomaly(deg)": -58.63333239991982,
        "RAAN(deg)": 139.9953794594628,
        "Satellite Name": "Test1 634",
        "Satellite Number": 634,
        "Semi-Major Axis(m)": 6980739.136638005,
        "Time(s)": 110
    },
    {
        "Altitude(m)": 620330.6328613904,
        "Argument of Periapsis(deg)": 0.0012502735095955685,
        "Eccentricity": 0.0,
        "Inclination(deg)": 60.0,
        "Latitude(deg)": -47.47252687116376,
        "Longitude(deg)": 0.765572323017561,
        "Mean Anomaly(deg)": -58.013226254458,
        "RAAN(deg)": 139.99495941032308,
        "Satellite Name": "Test1 634",
        "Satellite Number": 634,
        "Semi-Major Axis(m)": 6980739.136638005,
        "Time(s)": 120
    },
    {
        "Altitude(m)": 620159.936804327,
        "Argument of Periapsis(deg)": 0.0013544629687285324,
        "Eccentricity": 0.0,
        "Inclination(deg)": 60.0,
        "Latitude(deg)": -47.052691347472816,
        "Longitude(deg)": 1.3915499974448464,
        "Mean Anomaly(deg)": -57.3931201089962,
        "RAAN(deg)": 139.99453936118334,
        "Satellite Name": "Test1 634",
        "Satellite Number": 634,
        "Semi-Major Axis(m)": 6980739.136638005,
        "Time(s)": 130
    },
    {
        "Altitude(m)": 619987.2461943576,
        "Argument of Periapsis(deg)": 0.0014586524278614966,
        "Eccentricity": 0.0,
        "Inclination(deg)": 60.0,
        "Latitude(deg)": -46.628986356958,
        "Longitude(deg)": 2.0071103230241945,
        "Mean Anomaly(deg)": -56.77301396353432,
        "RAAN(deg)": 139.9941193120436,
        "Satellite Name": "Test1 634",
        "Satellite Number": 634,
        "Semi-Major Axis(m)": 6980739.136638005,
        "Time(s)": 140
    },
    {
        "Altitude(m)": 619812.6279514714,
        "Argument of Periapsis(deg)": 0.0015628418869944607,
        "Eccentricity": 0.0,
        "Inclination(deg)": 60.0,
        "Latitude(deg)": -46.201525516724324,
        "Longitude(deg)": 2.6124757099729567,
        "Mean Anomaly(deg)": -56.15290781807257,
        "RAAN(deg)": 139.99369926290385,
        "Satellite Name": "Test1 634",
        "Satellite Number": 634,
        "Semi-Major Axis(m)": 6980739.136638005,
        "Time(s)": 150
    },
    {
        "Altitude(m)": 619636.1496897954,
        "Argument of Periapsis(deg)": 0.0016670313461274247,
        "Eccentricity": 0.0,
        "Inclination(deg)": 60.0,
        "Latitude(deg)": -45.770419117516326,
        "Longitude(deg)": 3.2078679573503615,
        "Mean Anomaly(deg)": -55.53280167261069,
        "RAAN(deg)": 139.99327921376414,
        "Satellite Name": "Test1 634",
        "Satellite Number": 634,
        "Semi-Major Axis(m)": 6980739.136638005,
        "Time(s)": 160
    },
    {
        "Altitude(m)": 619457.8796883593,
        "Argument of Periapsis(deg)": 0.0017712208052603888,
        "Eccentricity": 0.0,
        "Inclination(deg)": 60.0,
        "Latitude(deg)": -45.33577419497396,
        "Longitude(deg)": 3.793506884941901,
        "Mean Anomaly(deg)": -54.91269552714889,
        "RAAN(deg)": 139.99285916462438,
        "Satellite Name": "Test1 634",
        "Satellite Number": 634,
        "Semi-Major Axis(m)": 6980739.136638005,
        "Time(s)": 170
    },
    {
        "Altitude(m)": 619277.8868615609,
        "Argument of Periapsis(deg)": 0.001875410264393353,
        "Eccentricity": 0.0,
        "Inclination(deg)": 60.0,
        "Latitude(deg)": -44.89769460343935,
        "Longitude(deg)": 4.3696105170275,
        "Mean Anomaly(deg)": -54.29258938168706,
        "RAAN(deg)": 139.99243911548464,
        "Satellite Name": "Test1 634",
        "Satellite Number": 634,
        "Semi-Major Axis(m)": 6980739.136638005,
        "Time(s)": 180
    },
    {
        "Altitude(m)": 619096.2407293051,
        "Argument of Periapsis(deg)": 0.0019795997235263173,
        "Eccentricity": 0.0,
        "Inclination(deg)": 60.0,
        "Latitude(deg)": -44.456281091763806,
        "Longitude(deg)": 4.936395302458923,
        "Mean Anomaly(deg)": -53.672483236225204,
        "RAAN(deg)": 139.99201906634488,
        "Satellite Name": "Test1 634",
        "Satellite Number": 634,
        "Semi-Major Axis(m)": 6980739.136638005,
        "Time(s)": 190
    }
]